{
  "type": "FeatureCollection",
  "generator": "overpass-ide",
  "copyright": "The data included in this document is from www.openstreetmap.org. The data is made available under ODbL.",
  "timestamp": "2021-11-16T19:08:11Z",
  "features": [
    {
      "type": "Feature",
      "properties": {
        "@id": "node/61785451",
        "alt_name": "New York City",
        "alt_name:pt": "Cidade de Nova Iorque",
        "alt_name:vi": "Thành phố New York;Thành phố Nữu Ước;Thành phố Nữu Ước;Niu Oóc;Thành phố Niu Oóc",
        "importance": "international",
        "is_in:continent": "North America",
        "is_in:country": "United States",
        "is_in:country_code": "US",
        "is_in:iso_3166_2": "US-NY",
        "name": "New York",
        "name:ar": "نيويورك",
        "name:be": "Нью-Ёрк",
        "name:be-tarask": "Нью-Ёрк",
        "name:ca": "Nova York",
        "name:cy": "Efrog Newydd",
        "name:de": "New York",
        "name:el": "Νέα Υόρκη",
        "name:en": "New York",
        "name:eo": "Novjorko",
        "name:es": "Nueva York",
        "name:fa": "نیویورک",
        "name:fr": "New York",
        "name:gl": "Nova York",
        "name:he": "ניו יורק",
        "name:hi": "न्यूयॊर्क्",
        "name:is": "Nýja Jórvík",
        "name:it": "New York",
        "name:ja": "ニューヨーク",
        "name:jbo": ".nu,IORK.",
        "name:kn": "ನ್ಯೂಯೊರ್ಕ್",
        "name:ko": "뉴욕",
        "name:oc": "Nòva York",
        "name:pl": "Nowy Jork",
        "name:pt": "Nova Iorque",
        "name:ru": "Нью-Йорк",
        "name:te": "న్యూయొర్క్",
        "name:uk": "Нью-Йорк",
        "name:vi": "New York",
        "name:zh": "纽约/紐約",
        "name:zh-Hans": "纽约",
        "name:zh-Hant": "紐約",
        "official_name": "City of New York",
        "old_name:it": "Nuova York",
        "place": "city",
        "population": "8550405",
        "population:date": "2010",
        "rank": "0",
        "short_name": "NYC",
        "source:name:oc": "Lo Congrès",
        "source:population": "US Census 2010",
        "website": "https://www.nyc.gov",
        "wikidata": "Q60",
        "wikipedia": "en:New York City"
      },
      "geometry": {
        "type": "Point",
        "coordinates": [
          -74.0060152,
          40.7127281
        ]
      },
      "id": "node/61785451"
    }
  ]
}