{
  "type": "FeatureCollection",
  "generator": "overpass-ide",
  "copyright": "The data included in this document is from www.openstreetmap.org. The data is made available under ODbL.",
  "timestamp": "2021-11-16T19:02:02Z",
  "features": [
    {
      "type": "Feature",
      "properties": {
        "@id": "node/502833400",
        "name": "New World Mall",
        "name:zh": "新世界",
        "operator": "Macy's",
        "shop": "department_store"
      },
      "geometry": {
        "type": "Point",
        "coordinates": [
          -73.8291313,
          40.7595986
        ]
      },
      "id": "node/502833400"
    },
    {
      "type": "Feature",
      "properties": {
        "@id": "node/1383919199",
        "addr:housenumber": "250",
        "addr:street": "West 58th Street",
        "atm": "yes",
        "brand": "TJ Maxx",
        "brand:wikidata": "Q10860683",
        "brand:wikipedia": "en:TJ Maxx",
        "name": "TJ Maxx",
        "shop": "department_store"
      },
      "geometry": {
        "type": "Point",
        "coordinates": [
          -73.9823,
          40.7671848
        ]
      },
      "id": "node/1383919199"
    },
    {
      "type": "Feature",
      "properties": {
        "@id": "node/1383949229",
        "addr:city": "New York",
        "addr:housenumber": "250",
        "addr:postcode": "10107",
        "addr:state": "NY",
        "addr:street": "West 57th Street",
        "brand": "TJ Maxx",
        "brand:wikidata": "Q10860683",
        "brand:wikipedia": "en:TJ Maxx",
        "contact:phone": "(212) 245-6201",
        "name": "TJ Maxx",
        "opening_hours": "08:00-21:00",
        "shop": "department_store",
        "wheelchair": "yes"
      },
      "geometry": {
        "type": "Point",
        "coordinates": [
          -73.9826892,
          40.7663399
        ]
      },
      "id": "node/1383949229"
    },
    {
      "type": "Feature",
      "properties": {
        "@id": "node/2041169440",
        "brand": "Marshalls",
        "brand:wikidata": "Q15903261",
        "brand:wikipedia": "en:Marshalls",
        "name": "Marshalls",
        "shop": "department_store"
      },
      "geometry": {
        "type": "Point",
        "coordinates": [
          -73.9087363,
          40.8732378
        ]
      },
      "id": "node/2041169440"
    },
    {
      "type": "Feature",
      "properties": {
        "@id": "node/2041169447",
        "brand": "Target",
        "brand:wikidata": "Q1046951",
        "brand:wikipedia": "en:Target Corporation",
        "name": "Target",
        "shop": "department_store",
        "wheelchair": "yes"
      },
      "geometry": {
        "type": "Point",
        "coordinates": [
          -73.9076555,
          40.873435
        ]
      },
      "id": "node/2041169447"
    },
    {
      "type": "Feature",
      "properties": {
        "@id": "node/2183040744",
        "brand": "TJ Maxx",
        "brand:wikidata": "Q10860683",
        "brand:wikipedia": "en:TJ Maxx",
        "name": "TJ Maxx",
        "shop": "department_store",
        "wheelchair": "yes"
      },
      "geometry": {
        "type": "Point",
        "coordinates": [
          -74.0105041,
          40.7076577
        ]
      },
      "id": "node/2183040744"
    },
    {
      "type": "Feature",
      "properties": {
        "@id": "node/2287666019",
        "brand": "TJ Maxx",
        "brand:wikidata": "Q10860683",
        "brand:wikipedia": "en:TJ Maxx",
        "name": "TJ Maxx",
        "shop": "department_store"
      },
      "geometry": {
        "type": "Point",
        "coordinates": [
          -73.9586454,
          40.6092891
        ]
      },
      "id": "node/2287666019"
    },
    {
      "type": "Feature",
      "properties": {
        "@id": "node/2321673303",
        "addr:city": "Brooklyn",
        "addr:housenumber": "8973",
        "addr:postcode": "11214",
        "addr:state": "NY",
        "addr:street": "Bay Parkway",
        "brand": "Kohl's",
        "brand:wikidata": "Q967265",
        "brand:wikipedia": "en:Kohl's",
        "name": "Kohl's",
        "opening_hours": "09:00-22:00; Fr 09:00-23:00; Sa 08:00-23:00",
        "payment:cash": "yes",
        "payment:credit_cards": "yes",
        "phone": "+1-718-266-6357",
        "shop": "department_store",
        "toilets": "yes",
        "website": "https://www.kohls.com/stores/ny/brooklyn-781.shtml"
      },
      "geometry": {
        "type": "Point",
        "coordinates": [
          -74.0007072,
          40.5933148
        ]
      },
      "id": "node/2321673303"
    },
    {
      "type": "Feature",
      "properties": {
        "@id": "node/2321673304",
        "addr:city": "Brooklyn",
        "addr:housenumber": "8973-95",
        "addr:postcode": "11214",
        "addr:state": "NY",
        "addr:street": "Bay Parkway",
        "air_conditioning": "yes",
        "brand": "Target",
        "brand:wikidata": "Q1046951",
        "brand:wikipedia": "en:Target Corporation",
        "name": "Target",
        "opening_hours": "08:00-22:00",
        "payment:american_express": "yes",
        "payment:cash": "yes",
        "payment:coins": "yes",
        "payment:credit_cards": "yes",
        "payment:debit_cards": "yes",
        "payment:mastercard": "yes",
        "payment:visa": "yes",
        "phone": "+1-929-479-3702",
        "shop": "department_store",
        "website": "https://www.target.com/sl/brooklyn-bay-parkway/3356",
        "wheelchair": "yes"
      },
      "geometry": {
        "type": "Point",
        "coordinates": [
          -74.0010998,
          40.5938723
        ]
      },
      "id": "node/2321673304"
    },
    {
      "type": "Feature",
      "properties": {
        "@id": "node/2325109206",
        "brand": "Macy's",
        "brand:wikidata": "Q629269",
        "brand:wikipedia": "en:Macy's",
        "name": "Macy's",
        "shop": "department_store"
      },
      "geometry": {
        "type": "Point",
        "coordinates": [
          -73.9196543,
          40.6108391
        ]
      },
      "id": "node/2325109206"
    },
    {
      "type": "Feature",
      "properties": {
        "@id": "node/2325109208",
        "brand": "Sears",
        "brand:wikidata": "Q6499202",
        "brand:wikipedia": "en:Sears",
        "name": "Sears",
        "shop": "department_store"
      },
      "geometry": {
        "type": "Point",
        "coordinates": [
          -73.9204678,
          40.6093657
        ]
      },
      "id": "node/2325109208"
    },
    {
      "type": "Feature",
      "properties": {
        "@id": "node/2328279412",
        "addr:housenumber": "101",
        "addr:postcode": "10011",
        "addr:street": "7th Avenue",
        "branch": "Downtown",
        "brand": "Barneys New York",
        "brand:wikidata": "Q59465",
        "brand:wikipedia": "en:Barneys New York",
        "email": "info-downtown@barneys.com",
        "name": "Barneys New York",
        "opening_hours": "Mo, Tu 10:00-19:00; We-Sa 10:00-20:00; Su 11:00-19:00",
        "phone": "+1 646-264-6400",
        "shop": "department_store",
        "website": "https://www.barneys.com/store/downtown/R-store-001"
      },
      "geometry": {
        "type": "Point",
        "coordinates": [
          -73.9983707,
          40.7399925
        ]
      },
      "id": "node/2328279412"
    },
    {
      "type": "Feature",
      "properties": {
        "@id": "node/2494254720",
        "addr:housenumber": "427",
        "addr:postcode": "11201",
        "addr:street": "Fulton Street",
        "name": "ABC Super Stores",
        "shop": "department_store"
      },
      "geometry": {
        "type": "Point",
        "coordinates": [
          -73.9878568,
          40.6918089
        ]
      },
      "id": "node/2494254720"
    },
    {
      "type": "Feature",
      "properties": {
        "@id": "node/2545661877",
        "addr:housenumber": "257-15",
        "addr:postcode": "11004",
        "addr:street": "Union Turnpike",
        "brand": "Marshalls",
        "brand:wikidata": "Q15903261",
        "brand:wikipedia": "en:Marshalls",
        "name": "Marshalls",
        "shop": "department_store"
      },
      "geometry": {
        "type": "Point",
        "coordinates": [
          -73.7138543,
          40.7462644
        ]
      },
      "id": "node/2545661877"
    },
    {
      "type": "Feature",
      "properties": {
        "@id": "node/2555120407",
        "addr:housenumber": "452",
        "addr:postcode": "10013",
        "addr:street": "Broadway",
        "description": "Chinese and other Asian imports",
        "name": "Pearl River Mart",
        "opening_hours": "Mo-Su 11:00-19:00",
        "phone": "+1-212-431-4770",
        "shop": "department_store",
        "website": "https://www.pearlriver.com/",
        "wheelchair": "yes"
      },
      "geometry": {
        "type": "Point",
        "coordinates": [
          -74.0007941,
          40.7204665
        ]
      },
      "id": "node/2555120407"
    },
    {
      "type": "Feature",
      "properties": {
        "@id": "node/2562380325",
        "addr:housenumber": "500",
        "addr:postcode": "10009",
        "addr:street": "East 14th Street",
        "brand": "Target",
        "brand:wikidata": "Q1046951",
        "brand:wikipedia": "en:Target Corporation",
        "name": "Target",
        "opening_hours": "Mo-Fr 07:00-22:00; Sa,Su 08:00-22:00",
        "phone": "+1-917-994-3522",
        "shop": "department_store",
        "toilets": "no",
        "website": "https://www.target.com/sl/manhattan-east-village/3249"
      },
      "geometry": {
        "type": "Point",
        "coordinates": [
          -73.980262,
          40.7301488
        ]
      },
      "id": "node/2562380325"
    },
    {
      "type": "Feature",
      "properties": {
        "@id": "node/2562442597",
        "addr:city": "New York",
        "addr:housenumber": "37",
        "addr:postcode": "10013",
        "addr:street": "Greene Street",
        "name": "Kartell",
        "shop": "department_store"
      },
      "geometry": {
        "type": "Point",
        "coordinates": [
          -74.0020843,
          40.7219268
        ]
      },
      "id": "node/2562442597"
    },
    {
      "type": "Feature",
      "properties": {
        "@id": "node/2708083597",
        "name": "Bergdorf Goodman, Canada Goose",
        "shop": "department_store",
        "wheelchair": "yes"
      },
      "geometry": {
        "type": "Point",
        "coordinates": [
          -73.9739286,
          40.7634607
        ]
      },
      "id": "node/2708083597"
    },
    {
      "type": "Feature",
      "properties": {
        "@id": "node/2724212339",
        "addr:city": "Jamaica",
        "addr:housenumber": "168-23",
        "addr:postcode": "11432",
        "addr:state": "NY",
        "addr:street": "Jamaica Avenue",
        "brand": "Marshalls",
        "brand:wikidata": "Q15903261",
        "brand:wikipedia": "en:Marshalls",
        "name": "Marshalls",
        "opening_hours": "Mo-Sa 08:30-21:30; Su 11:00-20:00",
        "phone": "+1-718-725-0409",
        "shop": "department_store",
        "website": "https://www.marshallsonline.com/store-finder/567",
        "wheelchair": "yes"
      },
      "geometry": {
        "type": "Point",
        "coordinates": [
          -73.791631,
          40.7068152
        ]
      },
      "id": "node/2724212339"
    },
    {
      "type": "Feature",
      "properties": {
        "@id": "node/2797261815",
        "addr:city": "New York",
        "addr:housenumber": "4201",
        "addr:postcode": "10033",
        "addr:state": "NY",
        "addr:street": "Broadway",
        "addr:unit": "W2.2",
        "brand": "Marshalls",
        "brand:wikidata": "Q15903261",
        "brand:wikipedia": "en:Marshalls",
        "name": "Marshalls",
        "shop": "department_store"
      },
      "geometry": {
        "type": "Point",
        "coordinates": [
          -73.9376132,
          40.8487108
        ]
      },
      "id": "node/2797261815"
    },
    {
      "type": "Feature",
      "properties": {
        "@id": "node/2823341403",
        "addr:housenumber": "255",
        "addr:postcode": "10007",
        "addr:street": "Greenwich Street",
        "brand": "Target",
        "brand:wikidata": "Q1046951",
        "brand:wikipedia": "en:Target Corporation",
        "name": "Target",
        "opening_hours": "Mo-Su 07:00-23:00",
        "shop": "department_store"
      },
      "geometry": {
        "type": "Point",
        "coordinates": [
          -74.0112651,
          40.7145279
        ]
      },
      "id": "node/2823341403"
    },
    {
      "type": "Feature",
      "properties": {
        "@id": "node/2842215272",
        "addr:housenumber": "88-01",
        "addr:postcode": "11373",
        "addr:street": "Queens Boulevard",
        "branch": "Queens Place",
        "brand": "Target",
        "brand:wikidata": "Q1046951",
        "brand:wikipedia": "en:Target Corporation",
        "delivery": "yes",
        "drink:beer": "yes",
        "name": "Target",
        "opening_hours": "Mo-Su 08:00-00:00 open \"Store\" || Mo-Fr 09:00-20:00; Sa 09:00-18:00; Su 10:00-17:00 open \"Pharmacy\"",
        "phone": "+1 718-760-5656",
        "shop": "department_store",
        "website": "https://www.target.com/sl/queens-place/1344"
      },
      "geometry": {
        "type": "Point",
        "coordinates": [
          -73.8748504,
          40.7356863
        ]
      },
      "id": "node/2842215272"
    },
    {
      "type": "Feature",
      "properties": {
        "@id": "node/2842215275",
        "brand": "Macy's",
        "brand:wikidata": "Q629269",
        "brand:wikipedia": "en:Macy's",
        "name": "Macy's",
        "shop": "department_store"
      },
      "geometry": {
        "type": "Point",
        "coordinates": [
          -73.8745714,
          40.7354383
        ]
      },
      "id": "node/2842215275"
    },
    {
      "type": "Feature",
      "properties": {
        "@id": "node/2883793011",
        "brand": "Marshalls",
        "brand:wikidata": "Q15903261",
        "brand:wikipedia": "en:Marshalls",
        "name": "Marshalls",
        "shop": "department_store"
      },
      "geometry": {
        "type": "Point",
        "coordinates": [
          -73.945604,
          40.8081207
        ]
      },
      "id": "node/2883793011"
    },
    {
      "type": "Feature",
      "properties": {
        "@id": "node/2893229248",
        "name": "Bergdorf Goodman",
        "shop": "department_store",
        "wikidata": "Q793430"
      },
      "geometry": {
        "type": "Point",
        "coordinates": [
          -73.9733602,
          40.7633245
        ]
      },
      "id": "node/2893229248"
    },
    {
      "type": "Feature",
      "properties": {
        "@id": "node/3235708622",
        "addr:city": "New York",
        "addr:housenumber": "2085",
        "addr:postcode": "10023",
        "addr:state": "NY",
        "addr:street": "Broadway",
        "branch": "Upper West Side",
        "brand": "Bloomingdale's",
        "brand:wikidata": "Q283383",
        "brand:wikipedia": "en:Bloomingdale's",
        "name": "Bloomingdale's",
        "opening_hours": "Mo-Sa 10:00-21:00; Su 11:00-20:00",
        "phone": "+1 212-634-3190",
        "shop": "department_store",
        "website": "https://locations.bloomingdales.com/upper-west-side-outlet"
      },
      "geometry": {
        "type": "Point",
        "coordinates": [
          -73.982197,
          40.7791578
        ]
      },
      "id": "node/3235708622"
    },
    {
      "type": "Feature",
      "properties": {
        "@id": "node/3273820746",
        "addr:city": "New York",
        "addr:housenumber": "620",
        "addr:state": "NY",
        "addr:street": "8th Avenue",
        "branch": "Times Square",
        "brand": "Muji",
        "brand:en": "Muji",
        "brand:ja": "無印良品",
        "brand:wikidata": "Q708789",
        "brand:wikipedia": "en:Muji",
        "name": "Muji",
        "name:en": "Muji",
        "name:ja": "無印良品",
        "opening_hours": "Mo-Sa 11:00-21:00; Su 11:00-20:00",
        "opening_hours:covid19": "11:00-18:00",
        "phone": "+1-212-382-2300",
        "postal_code": "10018",
        "shop": "department_store",
        "website": "https://www.muji.com/us"
      },
      "geometry": {
        "type": "Point",
        "coordinates": [
          -73.9898888,
          40.7557335
        ]
      },
      "id": "node/3273820746"
    },
    {
      "type": "Feature",
      "properties": {
        "@id": "node/3421054403",
        "brand": "Kmart",
        "brand:wikidata": "Q1753080",
        "brand:wikipedia": "en:Kmart",
        "name": "Kmart",
        "opening_hours": "Mo-Su 09:00-20:00",
        "shop": "department_store",
        "toilets": "no"
      },
      "geometry": {
        "type": "Point",
        "coordinates": [
          -73.9910411,
          40.7304151
        ]
      },
      "id": "node/3421054403"
    },
    {
      "type": "Feature",
      "properties": {
        "@id": "node/3446947495",
        "name": "Ethan Allen",
        "shop": "department_store"
      },
      "geometry": {
        "type": "Point",
        "coordinates": [
          -73.9662476,
          40.7624703
        ]
      },
      "id": "node/3446947495"
    },
    {
      "type": "Feature",
      "properties": {
        "@id": "node/3451116505",
        "brand": "Kmart",
        "brand:wikidata": "Q1753080",
        "brand:wikipedia": "en:Kmart",
        "name": "Kmart",
        "shop": "department_store"
      },
      "geometry": {
        "type": "Point",
        "coordinates": [
          -73.9916213,
          40.7511003
        ]
      },
      "id": "node/3451116505"
    },
    {
      "type": "Feature",
      "properties": {
        "@id": "node/3859061782",
        "addr:housenumber": "620",
        "addr:street": "6th Avenue",
        "brand": "TJ Maxx",
        "brand:wikidata": "Q10860683",
        "brand:wikipedia": "en:TJ Maxx",
        "name": "TJ Maxx",
        "shop": "department_store"
      },
      "geometry": {
        "type": "Point",
        "coordinates": [
          -73.9945019,
          40.7401164
        ]
      },
      "id": "node/3859061782"
    },
    {
      "type": "Feature",
      "properties": {
        "@id": "node/3866570762",
        "name": "DII Deals & Discounts",
        "shop": "department_store",
        "wheelchair": "yes"
      },
      "geometry": {
        "type": "Point",
        "coordinates": [
          -73.920818,
          40.7599965
        ]
      },
      "id": "node/3866570762"
    },
    {
      "type": "Feature",
      "properties": {
        "@id": "node/4014980153",
        "name": "Hu Department Store",
        "shop": "department_store"
      },
      "geometry": {
        "type": "Point",
        "coordinates": [
          -73.9146781,
          40.7539366
        ]
      },
      "id": "node/4014980153"
    },
    {
      "type": "Feature",
      "properties": {
        "@id": "node/4111221271",
        "addr:street": "Columbus Avenue",
        "brand": "TJ Maxx",
        "brand:wikidata": "Q10860683",
        "brand:wikipedia": "en:TJ Maxx",
        "name": "TJ Maxx",
        "shop": "department_store"
      },
      "geometry": {
        "type": "Point",
        "coordinates": [
          -73.9662954,
          40.7948916
        ]
      },
      "id": "node/4111221271"
    },
    {
      "type": "Feature",
      "properties": {
        "@id": "node/4136515180",
        "name": "Raymour & Flanigan",
        "shop": "department_store"
      },
      "geometry": {
        "type": "Point",
        "coordinates": [
          -73.8739123,
          40.6525302
        ]
      },
      "id": "node/4136515180"
    },
    {
      "type": "Feature",
      "properties": {
        "@id": "node/4136515297",
        "brand": "JCPenney",
        "brand:wikidata": "Q920037",
        "brand:wikipedia": "en:J. C. Penney",
        "name": "JCPenney",
        "shop": "department_store"
      },
      "geometry": {
        "type": "Point",
        "coordinates": [
          -73.874787,
          40.6518425
        ]
      },
      "id": "node/4136515297"
    },
    {
      "type": "Feature",
      "properties": {
        "@id": "node/4149649614",
        "addr:housenumber": "52",
        "addr:street": "Cooper Square",
        "branch": "Cooper Square",
        "brand": "Muji",
        "brand:en": "Muji",
        "brand:ja": "無印良品",
        "brand:wikidata": "Q708789",
        "brand:wikipedia": "en:Muji",
        "name": "Muji",
        "name:en": "Muji",
        "name:ja": "無印良品",
        "opening_hours": "Mo-Sa 11:00-18:00",
        "phone": "+1-212-358-8693",
        "postal_code": "10003",
        "shop": "department_store",
        "toilets": "no",
        "website": "https://www.muji.com/us"
      },
      "geometry": {
        "type": "Point",
        "coordinates": [
          -73.9912369,
          40.7288409
        ]
      },
      "id": "node/4149649614"
    },
    {
      "type": "Feature",
      "properties": {
        "@id": "node/4305352631",
        "brand": "JCPenney",
        "brand:wikidata": "Q920037",
        "brand:wikipedia": "en:J. C. Penney",
        "name": "JCPenney",
        "shop": "department_store"
      },
      "geometry": {
        "type": "Point",
        "coordinates": [
          -73.8270441,
          40.8691097
        ]
      },
      "id": "node/4305352631"
    },
    {
      "type": "Feature",
      "properties": {
        "@id": "node/4316423489",
        "name": "DUMBO flea",
        "shop": "department_store"
      },
      "geometry": {
        "type": "Point",
        "coordinates": [
          -73.987799,
          40.7026219
        ]
      },
      "id": "node/4316423489"
    },
    {
      "type": "Feature",
      "properties": {
        "@id": "node/4334599489",
        "name": "Burlington",
        "shop": "department_store"
      },
      "geometry": {
        "type": "Point",
        "coordinates": [
          -73.8911676,
          40.8621699
        ]
      },
      "id": "node/4334599489"
    },
    {
      "type": "Feature",
      "properties": {
        "@id": "node/4407705167",
        "brand": "Macy's",
        "brand:wikidata": "Q629269",
        "brand:wikipedia": "en:Macy's",
        "internet_access": "wlan",
        "internet_access:fee": "no",
        "level": "0;1",
        "name": "Macy's",
        "opening_hours": "Mo-Sa 10:00-21:00; Su 11:00-18:00",
        "shop": "department_store",
        "wheelchair": "yes"
      },
      "geometry": {
        "type": "Point",
        "coordinates": [
          -74.1651775,
          40.5836949
        ]
      },
      "id": "node/4407705167"
    },
    {
      "type": "Feature",
      "properties": {
        "@id": "node/4468578289",
        "name": "Red Sales",
        "name:en": "Red Sales",
        "shop": "department_store"
      },
      "geometry": {
        "type": "Point",
        "coordinates": [
          -73.7963269,
          40.7033773
        ]
      },
      "id": "node/4468578289"
    },
    {
      "type": "Feature",
      "properties": {
        "@id": "node/4476179089",
        "addr:housenumber": "58",
        "addr:postcode": "11232",
        "addr:street": "50th Street",
        "email": "info@mcdonaldpaper.com",
        "internet_access": "wlan",
        "name": "McDonald Paper & Restaurant Supplies",
        "name:en": "McDonald Paper & Restaurant Supplies",
        "name:ru": "Макдональд",
        "opening_hours": "Mo-Fr 08:00-06:00; Sa 09:00-02:00",
        "phone": "+17187687688",
        "shop": "department_store",
        "website": "https://mcdonaldpaper.com/"
      },
      "geometry": {
        "type": "Point",
        "coordinates": [
          -74.0199808,
          40.6510298
        ]
      },
      "id": "node/4476179089"
    },
    {
      "type": "Feature",
      "properties": {
        "@id": "node/4490574507",
        "addr:country": "US",
        "addr:housenumber": "455",
        "addr:postcode": "10013",
        "addr:state": "NY",
        "addr:street": "Broadway",
        "branch": "SoHo",
        "brand": "Muji",
        "brand:en": "Muji",
        "brand:ja": "無印良品",
        "brand:wikidata": "Q708789",
        "brand:wikipedia": "en:Muji",
        "name": "Muji",
        "name:en": "Muji",
        "name:ja": "無印良品",
        "opening_hours": "Mo-Sa 10:00-21:00; Su 11:00-20:00",
        "operator": "MUJI USA Ltd",
        "phone": "+1-212-334-2002",
        "shop": "department_store",
        "website": "https://www.muji.com/us"
      },
      "geometry": {
        "type": "Point",
        "coordinates": [
          -74.0009938,
          40.7207142
        ]
      },
      "id": "node/4490574507"
    },
    {
      "type": "Feature",
      "properties": {
        "@id": "node/4559312797",
        "addr:housenumber": "422",
        "addr:postcode": "11201",
        "addr:street": "Fulton Street",
        "brand": "Macy's",
        "brand:wikidata": "Q629269",
        "brand:wikipedia": "en:Macy's",
        "name": "Macy's",
        "shop": "department_store"
      },
      "geometry": {
        "type": "Point",
        "coordinates": [
          -73.9857017,
          40.6906239
        ]
      },
      "id": "node/4559312797"
    },
    {
      "type": "Feature",
      "properties": {
        "@id": "node/4582724189",
        "addr:housenumber": "660",
        "addr:postcode": "10065",
        "addr:street": "Madison Avenue",
        "branch": "Madison Avenue",
        "brand": "Barneys New York",
        "brand:wikidata": "Q59465",
        "brand:wikipedia": "en:Barneys New York",
        "check_date": "2020-01-10",
        "email": "info-madison@barneys.com",
        "name": "Barneys New York",
        "note": "saw that store is closing soon (2020-01-10)",
        "opening_hours": "Mo-We, Sa 10:00-20:00; Th, Fr 10:00-21:00; Su 11:00-19:00",
        "phone": "+1 212-826-8900",
        "shop": "department_store",
        "website": "https://www.barneys.com/store/madison%20avenue/R-store-3"
      },
      "geometry": {
        "type": "Point",
        "coordinates": [
          -73.9709644,
          40.7647513
        ]
      },
      "id": "node/4582724189"
    },
    {
      "type": "Feature",
      "properties": {
        "@id": "node/4646776164",
        "addr:city": "New York",
        "addr:housenumber": "400",
        "addr:postcode": "10002",
        "addr:state": "NY",
        "addr:street": "Grand Street",
        "brand": "Target",
        "brand:wikidata": "Q1046951",
        "brand:wikipedia": "en:Target Corporation",
        "level": "1",
        "name": "Target",
        "opening_hours": "Mo-Fr 07:00-22:00; Sa-Su 08:00-22:00",
        "phone": "+1-917-994-3500",
        "shop": "department_store",
        "website": "https://www.target.com/sl/lower-east-side-grand-and-clinton/3284"
      },
      "geometry": {
        "type": "Point",
        "coordinates": [
          -73.9867797,
          40.7161435
        ]
      },
      "id": "node/4646776164"
    },
    {
      "type": "Feature",
      "properties": {
        "@id": "node/4654147691",
        "addr:housenumber": "16",
        "addr:street": "West 19th Street",
        "branch": "Chelsea",
        "brand": "Muji",
        "brand:en": "Muji",
        "brand:ja": "無印良品",
        "brand:wikidata": "Q708789",
        "brand:wikipedia": "en:Muji",
        "name": "Muji",
        "name:en": "Muji",
        "name:ja": "無印良品",
        "opening_hours": "Mo-Fr 11:00-20:00; Sa 11:00-20:30; Su 11:00-19:30",
        "phone": "+1-212-414-9024",
        "postal_code": "10011",
        "shop": "department_store",
        "website": "https://www.muji.com/us"
      },
      "geometry": {
        "type": "Point",
        "coordinates": [
          -73.9925642,
          40.7393636
        ]
      },
      "id": "node/4654147691"
    },
    {
      "type": "Feature",
      "properties": {
        "@id": "node/4687187690",
        "brand": "Kmart",
        "brand:wikidata": "Q1753080",
        "brand:wikipedia": "en:Kmart",
        "name": "Kmart",
        "name:en": "Kmart",
        "shop": "department_store"
      },
      "geometry": {
        "type": "Point",
        "coordinates": [
          -73.9922586,
          40.7513673
        ]
      },
      "id": "node/4687187690"
    },
    {
      "type": "Feature",
      "properties": {
        "@id": "node/4798951428",
        "shop": "department_store"
      },
      "geometry": {
        "type": "Point",
        "coordinates": [
          -73.9523988,
          40.7738061
        ]
      },
      "id": "node/4798951428"
    },
    {
      "type": "Feature",
      "properties": {
        "@id": "node/4842282105",
        "addr:city": "Fresh Meadows",
        "addr:housenumber": "61-11",
        "addr:postcode": "11365",
        "addr:street": "188th Street",
        "brand": "Kohl's",
        "brand:wikidata": "Q967265",
        "brand:wikipedia": "en:Kohl's",
        "name": "Kohl's",
        "shop": "department_store"
      },
      "geometry": {
        "type": "Point",
        "coordinates": [
          -73.7855221,
          40.7403409
        ]
      },
      "id": "node/4842282105"
    },
    {
      "type": "Feature",
      "properties": {
        "@id": "node/4876407521",
        "addr:housenumber": "620",
        "addr:street": "6th Avenue",
        "brand": "Marshalls",
        "brand:wikidata": "Q15903261",
        "brand:wikipedia": "en:Marshalls",
        "name": "Marshalls",
        "name:es": "marshalls",
        "shop": "department_store"
      },
      "geometry": {
        "type": "Point",
        "coordinates": [
          -73.9946367,
          40.7401382
        ]
      },
      "id": "node/4876407521"
    },
    {
      "type": "Feature",
      "properties": {
        "@id": "node/5067188222",
        "addr:housenumber": "475",
        "addr:postcode": "10017",
        "addr:street": "5th Avenue",
        "branch": "5th Avenue",
        "brand": "Muji",
        "brand:en": "Muji",
        "brand:ja": "無印良品",
        "brand:wikidata": "Q708789",
        "brand:wikipedia": "en:Muji",
        "clothes": "women;men",
        "name": "Muji",
        "name:en": "Muji",
        "name:ja": "無印良品",
        "opening_hours": "Mo-Sa 11:00-21:00; Su 10:00-20:00",
        "phone": "+1-212-447-1690",
        "shop": "department_store",
        "toilets": "yes",
        "website": "https://www.muji.com/us"
      },
      "geometry": {
        "type": "Point",
        "coordinates": [
          -73.9814036,
          40.7524534
        ]
      },
      "id": "node/5067188222"
    },
    {
      "type": "Feature",
      "properties": {
        "@id": "node/5111910521",
        "addr:city": "Staten Island",
        "addr:housenumber": "2873",
        "addr:postcode": "10314",
        "addr:state": "NY",
        "addr:street": "Richmond Avenue",
        "brand": "Target",
        "brand:wikidata": "Q1046951",
        "brand:wikipedia": "en:Target Corporation",
        "name": "Target",
        "shop": "department_store",
        "wheelchair": "yes"
      },
      "geometry": {
        "type": "Point",
        "coordinates": [
          -74.1671599,
          40.5750424
        ]
      },
      "id": "node/5111910521"
    },
    {
      "type": "Feature",
      "properties": {
        "@id": "node/5203454121",
        "shop": "department_store"
      },
      "geometry": {
        "type": "Point",
        "coordinates": [
          -73.9883287,
          40.7544641
        ]
      },
      "id": "node/5203454121"
    },
    {
      "type": "Feature",
      "properties": {
        "@id": "node/5223969050",
        "addr:housenumber": "200",
        "addr:postcode": "11249",
        "addr:state": "NY",
        "addr:street": "Wythe Avenue",
        "branch": "Williamsburg",
        "brand": "MUJI",
        "name": "MUJI",
        "opening_hours": "Mo-Sa 11:00-21:00; Su 11:00-20:00",
        "phone": "+1-718-599-1920",
        "shop": "department_store",
        "website": "https://www.muji.com/us"
      },
      "geometry": {
        "type": "Point",
        "coordinates": [
          -73.9616458,
          40.718592
        ]
      },
      "id": "node/5223969050"
    },
    {
      "type": "Feature",
      "properties": {
        "@id": "node/5226715621",
        "addr:city": "Rego Park",
        "addr:housenumber": "96-05",
        "addr:postcode": "11374",
        "addr:state": "NY",
        "addr:street": "Queens Boulevard",
        "brand": "Marshalls",
        "brand:wikidata": "Q15903261",
        "brand:wikipedia": "en:Marshalls",
        "name": "Marshalls",
        "shop": "department_store"
      },
      "geometry": {
        "type": "Point",
        "coordinates": [
          -73.8622289,
          40.7304277
        ]
      },
      "id": "node/5226715621"
    },
    {
      "type": "Feature",
      "properties": {
        "@id": "node/5365003752",
        "addr:city": "Ridgewood",
        "addr:housenumber": "58-09",
        "addr:postcode": "11385",
        "addr:state": "NY",
        "addr:street": "Myrtle Avenue",
        "name": "Telco",
        "phone": "(718) 418-7160",
        "shop": "department_store"
      },
      "geometry": {
        "type": "Point",
        "coordinates": [
          -73.9009143,
          40.700665
        ]
      },
      "id": "node/5365003752"
    },
    {
      "type": "Feature",
      "properties": {
        "@id": "node/5395876618",
        "addr:housenumber": "60-73",
        "addr:street": "Fresh Pond Road",
        "name": "Lot Less",
        "opening_hours": "Th-Sa 09:00-21:00; Mo-We, Su 09:00-20:00",
        "opening_hours:url": "https://lot-less.com/locations/",
        "payment:cash": "yes",
        "payment:credit_cards": "yes",
        "payment:debit_cards": "yes",
        "phone": "(718) 381-3040",
        "shop": "department_store",
        "toilets": "no",
        "website": "https://lot-less.com/"
      },
      "geometry": {
        "type": "Point",
        "coordinates": [
          -73.8967843,
          40.7066852
        ]
      },
      "id": "node/5395876618"
    },
    {
      "type": "Feature",
      "properties": {
        "@id": "node/5543397963",
        "addr:housenumber": "5411",
        "addr:state": "NY",
        "addr:street": "Myrtle Avenue",
        "amenity": "pharmacy",
        "healthcare": "pharmacy",
        "name": "Duane Read",
        "opening_hours": "Mo-Fr 07:00-23:00; Sa, Su 08:00-23:00",
        "payment:cash": "yes",
        "payment:cheque": "yes",
        "payment:credit_cards": "yes",
        "payment:debit_cards": "yes",
        "phone": "+1-718-386-6692",
        "shop": "department_store",
        "website": "https://www.walgreens.com/locator/duane+reade-5411+myrtle+ave-ridgewood-ny-11385/id=14314",
        "wheelchair": "limited"
      },
      "geometry": {
        "type": "Point",
        "coordinates": [
          -73.9104896,
          40.6997778
        ]
      },
      "id": "node/5543397963"
    },
    {
      "type": "Feature",
      "properties": {
        "@id": "node/5559390125",
        "addr:housenumber": "58-19",
        "addr:street": "Myrtle Avenue",
        "name": "M T Discount",
        "opening_hours": "Mo-Su 09:30-20:00",
        "shop": "department_store"
      },
      "geometry": {
        "type": "Point",
        "coordinates": [
          -73.9006039,
          40.7006448
        ]
      },
      "id": "node/5559390125"
    },
    {
      "type": "Feature",
      "properties": {
        "@id": "node/5567711271",
        "addr:housenumber": "300",
        "addr:street": "Wyckoff Avenue",
        "email": "info@abcsuperstore.com",
        "name": "ABC Super Stores",
        "opening_hours": "Mo-Fr 09:30-20:00; Sa 09:30-19:30; Su 10:30-19:00",
        "payment:cash": "yes",
        "payment:credit_cards": "yes",
        "payment:debit_cards": "yes",
        "phone": "+1-718-943-7495",
        "shop": "department_store",
        "website": "http://www.abcsuperstore.com/locations.html",
        "wheelchair": "yes"
      },
      "geometry": {
        "type": "Point",
        "coordinates": [
          -73.9109457,
          40.6991243
        ]
      },
      "id": "node/5567711271"
    },
    {
      "type": "Feature",
      "properties": {
        "@id": "node/5608327953",
        "addr:housenumber": "147",
        "addr:street": "East 57th Street",
        "name": "Hammacher Schlemmer",
        "opening_hours": "Mo-Sa 10:00-19:00; Su 11:00-18:00",
        "phone": "+1-800-421-9002",
        "shop": "department_store",
        "website": "https://www.hammacher.com/Editorial/Landmark-NY-Store",
        "wheelchair": "yes",
        "wikidata": "Q5645534",
        "wikipedia": "en:Hammacher Schlemmer"
      },
      "geometry": {
        "type": "Point",
        "coordinates": [
          -73.968481,
          40.7608617
        ]
      },
      "id": "node/5608327953"
    },
    {
      "type": "Feature",
      "properties": {
        "@id": "node/5619994918",
        "addr:housenumber": "60-80",
        "addr:street": "Myrtle Avenue",
        "name": "Telco Stores",
        "opening_hours": "Mo-Sa 10:00-19:30; Su 11:00-18:00",
        "payment:cash": "yes",
        "payment:credit_cards": "yes",
        "phone": "+1-718-497-9615",
        "shop": "department_store",
        "website": "http://telcostores.com/"
      },
      "geometry": {
        "type": "Point",
        "coordinates": [
          -73.8953988,
          40.7005486
        ]
      },
      "id": "node/5619994918"
    },
    {
      "type": "Feature",
      "properties": {
        "@id": "node/5673504795",
        "addr:housenumber": "517",
        "addr:postcode": "10035",
        "addr:street": "East 117th Street",
        "branch": "Harlem",
        "brand": "Target",
        "brand:wikidata": "Q1046951",
        "brand:wikipedia": "en:Target Corporation",
        "drink:beer": "yes",
        "level": "2",
        "name": "Target",
        "opening_hours": "08:00-24:00",
        "phone": "+1 212-835-0860",
        "ref": "2380",
        "shop": "department_store",
        "website": "https://www.target.com/sl/harlem/2380",
        "wheelchair": "yes"
      },
      "geometry": {
        "type": "Point",
        "coordinates": [
          -73.9311424,
          40.7953235
        ]
      },
      "id": "node/5673504795"
    },
    {
      "type": "Feature",
      "properties": {
        "@id": "node/5804789754",
        "addr:housenumber": "112",
        "addr:postcode": "10120",
        "addr:street": "West 34th Street",
        "branch": "Manhattan Herald Square",
        "brand": "Target",
        "brand:wikidata": "Q1046951",
        "brand:wikipedia": "en:Target Corporation",
        "drink:beer": "yes",
        "name": "Target",
        "opening_hours": "07:00-24:00 open \"Store\" || Mo-Fr 08:00-20:00; Sa 09:00-17:00; Su 10:00-17:00 open \"Pharmacy\"",
        "opening_hours:covid19": "09:00-20:00",
        "phone": "+1 646-968-4739",
        "shop": "department_store",
        "website": "https://www.target.com/sl/manhattan-herald-square/3277"
      },
      "geometry": {
        "type": "Point",
        "coordinates": [
          -73.9887454,
          40.7500122
        ]
      },
      "id": "node/5804789754"
    },
    {
      "type": "Feature",
      "properties": {
        "@id": "node/5845048732",
        "addr:housenumber": "125",
        "addr:postcode": "10022",
        "addr:street": "East 57th Street",
        "brand": "Saks Off 5th",
        "brand:wikidata": "Q2723882",
        "brand:wikipedia": "en:Saks Fifth Avenue",
        "name": "Saks Off 5th",
        "opening_hours": "Mo-Sa 10:00-21:00; Su 11:00-20:00",
        "phone": "+1 212-634-0730",
        "shop": "department_store",
        "website": "http://locations.saksoff5th.com/en/new-york-city"
      },
      "geometry": {
        "type": "Point",
        "coordinates": [
          -73.9696773,
          40.7613383
        ]
      },
      "id": "node/5845048732"
    },
    {
      "type": "Feature",
      "properties": {
        "@id": "node/6132778185",
        "name": "classic watch inc suite 17",
        "shop": "department_store"
      },
      "geometry": {
        "type": "Point",
        "coordinates": [
          -73.9802443,
          40.7572519
        ]
      },
      "id": "node/6132778185"
    },
    {
      "type": "Feature",
      "properties": {
        "@id": "node/6191501131",
        "addr:city": "Brooklyn",
        "addr:housenumber": "626",
        "addr:postcode": "11224",
        "addr:state": "NY",
        "addr:street": "Sheepshead Bay Road",
        "check_date:opening_hours": "2020-11-15",
        "name": "DII",
        "opening_hours": "Mo-Sa 09:00-20:00; Su 09:00-19:00",
        "payment:cash": "yes",
        "payment:credit_cards": "yes",
        "phone": "+1-718-265-7099",
        "shop": "department_store",
        "toilets": "no",
        "website": "https://www.deeii.com"
      },
      "geometry": {
        "type": "Point",
        "coordinates": [
          -73.9754162,
          40.5788644
        ]
      },
      "id": "node/6191501131"
    },
    {
      "type": "Feature",
      "properties": {
        "@id": "node/6250969793",
        "addr:city": "Brooklyn",
        "addr:housenumber": "351",
        "addr:postcode": "11239",
        "addr:state": "NY",
        "addr:street": "Gateway Drive",
        "brand": "Marshalls",
        "brand:wikidata": "Q15903261",
        "brand:wikipedia": "en:Marshalls",
        "name": "Marshalls",
        "phone": "+1-718-235-8142",
        "shop": "department_store"
      },
      "geometry": {
        "type": "Point",
        "coordinates": [
          -73.8730821,
          40.6512912
        ]
      },
      "id": "node/6250969793"
    },
    {
      "type": "Feature",
      "properties": {
        "@id": "node/6307022949",
        "addr:city": "Jamaica",
        "addr:housenumber": "162-21",
        "addr:postcode": "11432",
        "addr:state": "NY",
        "name": "Shoppers World",
        "phone": "+1-718-297-1919",
        "shop": "department_store"
      },
      "geometry": {
        "type": "Point",
        "coordinates": [
          -73.7971837,
          40.7046928
        ]
      },
      "id": "node/6307022949"
    },
    {
      "type": "Feature",
      "properties": {
        "@id": "node/6308438190",
        "brand": "Target",
        "brand:wikidata": "Q1046951",
        "brand:wikipedia": "en:Target Corporation",
        "name": "Target",
        "shop": "department_store"
      },
      "geometry": {
        "type": "Point",
        "coordinates": [
          -73.9764398,
          40.6843965
        ]
      },
      "id": "node/6308438190"
    },
    {
      "type": "Feature",
      "properties": {
        "@id": "node/6315032085",
        "addr:housenumber": "6401",
        "addr:street": "18th Avenue",
        "brand": "Target",
        "brand:wikidata": "Q1046951",
        "brand:wikipedia": "en:Target Corporation",
        "name": "Target",
        "shop": "department_store"
      },
      "geometry": {
        "type": "Point",
        "coordinates": [
          -73.9894704,
          40.619434
        ]
      },
      "id": "node/6315032085"
    },
    {
      "type": "Feature",
      "properties": {
        "@id": "node/6422332986",
        "name": "Mercado Little Spain",
        "shop": "department_store"
      },
      "geometry": {
        "type": "Point",
        "coordinates": [
          -74.0015022,
          40.7527394
        ]
      },
      "id": "node/6422332986"
    },
    {
      "type": "Feature",
      "properties": {
        "@id": "node/6424150105",
        "addr:city": "Bronx",
        "addr:housenumber": "815",
        "addr:postcode": "10465",
        "addr:state": "NY",
        "addr:street": "Hutchinson River Parkway",
        "name": "Target",
        "shop": "department_store"
      },
      "geometry": {
        "type": "Point",
        "coordinates": [
          -73.8374125,
          40.8241996
        ]
      },
      "id": "node/6424150105"
    },
    {
      "type": "Feature",
      "properties": {
        "@id": "node/6499926986",
        "addr:housenumber": "143",
        "addr:postcode": "11201",
        "addr:street": "Front Street",
        "name": "Front General Store",
        "phone": "+1-646-573-0123",
        "second_hand": "yes",
        "shop": "department_store",
        "website": "https://frontgeneralstore.com"
      },
      "geometry": {
        "type": "Point",
        "coordinates": [
          -73.9873612,
          40.7025485
        ]
      },
      "id": "node/6499926986"
    },
    {
      "type": "Feature",
      "properties": {
        "@id": "node/6534166841",
        "addr:housenumber": "241",
        "addr:postcode": "11201",
        "addr:street": "Atlantic Avenue",
        "brand": "Marshalls",
        "brand:wikidata": "Q15903261",
        "brand:wikipedia": "en:Marshalls",
        "level": "1;2",
        "name": "Marshalls",
        "opening_hours": "Mo-Sa 09:30-21:30; Su 10:00-20:00",
        "phone": "+1-718-797-5521",
        "shop": "department_store",
        "website": "https://www.marshalls.com/us/store/stores/Brooklyn-NY-11201/1290/aboutstore/",
        "wheelchair": "yes"
      },
      "geometry": {
        "type": "Point",
        "coordinates": [
          -73.9912,
          40.6894857
        ]
      },
      "id": "node/6534166841"
    },
    {
      "type": "Feature",
      "properties": {
        "@id": "node/6538610116",
        "brand": "Marshalls",
        "brand:wikidata": "Q15903261",
        "brand:wikipedia": "en:Marshalls",
        "name": "Marshalls",
        "shop": "department_store"
      },
      "geometry": {
        "type": "Point",
        "coordinates": [
          -74.1668754,
          40.5873728
        ]
      },
      "id": "node/6538610116"
    },
    {
      "type": "Feature",
      "properties": {
        "@id": "node/6680340128",
        "addr:housenumber": "510",
        "addr:postcode": "11201",
        "addr:street": "Fulton Street",
        "name": "Cookie's",
        "shop": "department_store"
      },
      "geometry": {
        "type": "Point",
        "coordinates": [
          -73.9827368,
          40.6894514
        ]
      },
      "id": "node/6680340128"
    },
    {
      "type": "Feature",
      "properties": {
        "@id": "node/6896602558",
        "addr:housenumber": "503",
        "addr:postcode": "11201",
        "addr:street": "Fulton Street",
        "brand": "TJ Maxx",
        "brand:wikidata": "Q10860683",
        "brand:wikipedia": "en:TJ Maxx",
        "name": "TJ Maxx",
        "opening_hours": "Mo-Sa 09:00-21:00; Su 10:00-20:00",
        "phone": "+1-718-260-8050",
        "shop": "department_store",
        "website": "https://tjmaxx.tjx.com/store/stores/Brooklyn-NY-11201/1365/aboutstore/"
      },
      "geometry": {
        "type": "Point",
        "coordinates": [
          -73.9849864,
          40.690662
        ]
      },
      "id": "node/6896602558"
    },
    {
      "type": "Feature",
      "properties": {
        "@id": "node/6938593785",
        "brand": "Marshalls",
        "brand:wikidata": "Q15903261",
        "brand:wikipedia": "en:Marshalls",
        "name": "Marshalls",
        "opening_hours": "Mo-Sa 09:30-21:30; Su 10:00-20:00",
        "shop": "department_store"
      },
      "geometry": {
        "type": "Point",
        "coordinates": [
          -73.9875998,
          40.7224138
        ]
      },
      "id": "node/6938593785"
    },
    {
      "type": "Feature",
      "properties": {
        "@id": "node/7005125738",
        "brand": "Nordstrom",
        "brand:wikidata": "Q174310",
        "brand:wikipedia": "en:Nordstrom",
        "name": "Nordstrom",
        "shop": "department_store"
      },
      "geometry": {
        "type": "Point",
        "coordinates": [
          -74.0753398,
          40.6436166
        ]
      },
      "id": "node/7005125738"
    },
    {
      "type": "Feature",
      "properties": {
        "@id": "node/7039624586",
        "addr:housenumber": "118",
        "addr:street": "West 22nd Street",
        "name:fr": "NY CAKE",
        "shop": "department_store"
      },
      "geometry": {
        "type": "Point",
        "coordinates": [
          -73.9945858,
          40.7427391
        ]
      },
      "id": "node/7039624586"
    },
    {
      "type": "Feature",
      "properties": {
        "@id": "node/7039624587",
        "addr:housenumber": "118",
        "addr:street": "West 22nd Street",
        "name:fr": "NY CAKE",
        "shop": "department_store"
      },
      "geometry": {
        "type": "Point",
        "coordinates": [
          -73.9941796,
          40.7429699
        ]
      },
      "id": "node/7039624587"
    },
    {
      "type": "Feature",
      "properties": {
        "@id": "node/7076355685",
        "addr:housenumber": "484",
        "addr:postcode": "10013",
        "addr:street": "Broadway",
        "brand": "TJ Maxx",
        "brand:wikidata": "Q10860683",
        "brand:wikipedia": "en:TJ Maxx",
        "name": "TJ Maxx",
        "shop": "department_store"
      },
      "geometry": {
        "type": "Point",
        "coordinates": [
          -74.0001884,
          40.721651
        ]
      },
      "id": "node/7076355685"
    },
    {
      "type": "Feature",
      "properties": {
        "@id": "node/7076359586",
        "brand": "Marshalls",
        "brand:wikidata": "Q15903261",
        "brand:wikipedia": "en:Marshalls",
        "name": "Marshalls",
        "shop": "department_store"
      },
      "geometry": {
        "type": "Point",
        "coordinates": [
          -73.9754203,
          40.6837317
        ]
      },
      "id": "node/7076359586"
    },
    {
      "type": "Feature",
      "properties": {
        "@id": "node/7076360885",
        "addr:city": "Long Island City",
        "addr:housenumber": "48-18",
        "addr:postcode": "11101",
        "addr:state": "NY",
        "addr:street": "Northern Blvd",
        "brand": "Marshalls",
        "brand:wikidata": "Q15903261",
        "brand:wikipedia": "en:Marshalls",
        "name": "Marshalls",
        "shop": "department_store"
      },
      "geometry": {
        "type": "Point",
        "coordinates": [
          -73.9146357,
          40.7531075
        ]
      },
      "id": "node/7076360885"
    },
    {
      "type": "Feature",
      "properties": {
        "@id": "node/7208773556",
        "brand": "Marshalls",
        "brand:wikidata": "Q15903261",
        "brand:wikipedia": "en:Marshalls",
        "name": "Marshalls",
        "shop": "department_store"
      },
      "geometry": {
        "type": "Point",
        "coordinates": [
          -74.0017933,
          40.6065956
        ]
      },
      "id": "node/7208773556"
    },
    {
      "type": "Feature",
      "properties": {
        "@id": "node/7326953642",
        "addr:city": "New York",
        "addr:housenumber": "1863",
        "addr:postcode": "10023-7503",
        "addr:state": "NY",
        "addr:street": "Broadway",
        "air_conditioning": "yes",
        "brand": "Target",
        "brand:wikidata": "Q1046951",
        "brand:wikipedia": "en:Target Corporation",
        "currency:USD": "yes",
        "level": "-2;-1;0",
        "name": "Target",
        "opening_hours": "Mo-Su 08:00-21:00",
        "payment:cash": "yes",
        "payment:credit_cards": "yes",
        "payment:debit_cards": "yes",
        "phone": "+1-646-429-3934",
        "shop": "department_store",
        "stroller": "yes",
        "website": "https://www.target.com/sl/upper-west-side-61st-and-broadway/3334",
        "wheelchair": "yes"
      },
      "geometry": {
        "type": "Point",
        "coordinates": [
          -73.9824801,
          40.7700969
        ]
      },
      "id": "node/7326953642"
    },
    {
      "type": "Feature",
      "properties": {
        "@id": "node/7821236145",
        "brand": "TJ Maxx",
        "brand:wikidata": "Q10860683",
        "brand:wikipedia": "en:TJ Maxx",
        "name": "TJ Maxx",
        "shop": "department_store"
      },
      "geometry": {
        "type": "Point",
        "coordinates": [
          -74.2321666,
          40.5300058
        ]
      },
      "id": "node/7821236145"
    },
    {
      "type": "Feature",
      "properties": {
        "@id": "node/8238261328",
        "addr:housenumber": "1201",
        "addr:postcode": "10021",
        "addr:street": "3rd Avenue",
        "branch": "Upper East Side 70th And 3rd",
        "brand": "Target",
        "brand:wikidata": "Q1046951",
        "brand:wikipedia": "en:Target Corporation",
        "delivery": "yes",
        "level": "0;-1",
        "name": "Target",
        "opening_hours": "Mo-Fr 07:00-22:00; Sa, Su 08:00-22:00",
        "payment:contactless": "yes",
        "phone": "+1 332-204-1718",
        "shop": "department_store",
        "website": "https://wwe.target.com/sl/upper-east-side-70th-and-3rd/3312"
      },
      "geometry": {
        "type": "Point",
        "coordinates": [
          -73.9614552,
          40.7681631
        ]
      },
      "id": "node/8238261328"
    },
    {
      "type": "Feature",
      "properties": {
        "@id": "node/8400580169",
        "level": "0",
        "name": "Saks Fifth Avenue off 5th",
        "opening_hours": "Mo-Th 11:00-18:00; Fr-Su 19:00",
        "shop": "department_store"
      },
      "geometry": {
        "type": "Point",
        "coordinates": [
          -74.0041705,
          40.6588794
        ]
      },
      "id": "node/8400580169"
    },
    {
      "type": "Feature",
      "properties": {
        "@id": "node/8785244240",
        "addr:housenumber": "225",
        "addr:street": "West 57th Street",
        "branch": "Women's Flagship",
        "brand": "Nordstrom",
        "brand:wikidata": "Q174310",
        "brand:wikipedia": "en:Nordstrom",
        "clothes": "women",
        "name": "Nordstrom",
        "opening_hours": "Mo-Sa 11:00-19:00; Su 12:00-18:00",
        "shop": "department_store",
        "website": "https://www.nordstrom.com"
      },
      "geometry": {
        "type": "Point",
        "coordinates": [
          -73.9815889,
          40.766461
        ]
      },
      "id": "node/8785244240"
    },
    {
      "type": "Feature",
      "properties": {
        "@id": "node/8785244241",
        "addr:housenumber": "235",
        "addr:street": "West 57th Street",
        "branch": "Men's Store",
        "brand": "Nordstrom",
        "brand:wikidata": "Q174310",
        "brand:wikipedia": "en:Nordstrom",
        "clothes": "men",
        "name": "Nordstrom",
        "opening_hours": "Mo-Sa 11:00-19:00; Su 12:00-18:00",
        "shop": "department_store",
        "website": "https://www.nordstrom.com"
      },
      "geometry": {
        "type": "Point",
        "coordinates": [
          -73.9820476,
          40.7666194
        ]
      },
      "id": "node/8785244241"
    },
    {
      "type": "Feature",
      "properties": {
        "@id": "node/9132786099",
        "addr:city": "Brooklyn",
        "addr:housenumber": "2027",
        "addr:postcode": "11235",
        "addr:state": "NY",
        "addr:street": "Emmons Avenue",
        "brand": "Macy's",
        "brand:wikidata": "Q629269",
        "brand:wikipedia": "en:Macy's",
        "name": "Macy’s Backstage",
        "opening_hours": "11:00-20:00",
        "phone": "+1-929-275-3490",
        "shop": "department_store",
        "website": "https://stores.macysbackstage.com/ny/brooklyn/sheepshead-bay.html"
      },
      "geometry": {
        "type": "Point",
        "coordinates": [
          -73.9467733,
          40.5839708
        ]
      },
      "id": "node/9132786099"
    },
    {
      "type": "Feature",
      "properties": {
        "@id": "node/9210931754",
        "addr:street": "East 86th Street",
        "name": "Target",
        "shop": "department_store"
      },
      "geometry": {
        "type": "Point",
        "coordinates": [
          -73.955022,
          40.7790698
        ]
      },
      "id": "node/9210931754"
    },
    {
      "type": "Feature",
      "properties": {
        "@id": "node/9247328218",
        "addr:housenumber": "2239",
        "addr:street": "Forest Avenue",
        "name": "Kohl's",
        "shop": "department_store"
      },
      "geometry": {
        "type": "Point",
        "coordinates": [
          -74.1643608,
          40.6281438
        ]
      },
      "id": "node/9247328218"
    }
  ]
}